
# Worst residual: 29.26 km
# MJD 59495.000000 (2021 Oct  8  0:00)
2011-037A = Spektr-R = NORAD 37755
1 37755U 11037A   21281.49919926  .00000000  00000-0  00000-0 0 14347
2 37755 074.8484 308.0515 6918899 340.5404 086.5011 00.11238922    05

# Worst residual: 16.90 km
# MJD 59496.000000 (2021 Oct  9  0:00)
2011-037A = Spektr-R = NORAD 37755
1 37755U 11037A   21282.49919926  .00000000  00000-0  00000-0 0 14348
2 37755 074.9250 307.9711 6928665 340.8203 126.0704 00.11197755    02

# Worst residual: 8.75 km
# MJD 59497.000000 (2021 Oct 10  0:00)
2011-037A = Spektr-R = NORAD 37755
1 37755U 11037A   21283.49919926  .00000000  00000-0  00000-0 0 14349
2 37755 074.8794 307.9800 6934691 340.9962 165.7965 00.11188603    03

# Worst residual: 5.08 km
# MJD 59498.000000 (2021 Oct 11  0:00)
2011-037A = Spektr-R = NORAD 37755
1 37755U 11037A   21284.49919926  .00000000  00000-0  00000-0 0 14340
2 37755 074.7574 308.0054 6937071 341.0928 205.8143 00.11188609    00

# Worst residual: 10.60 km
# MJD 59499.000000 (2021 Oct 12  0:00)
2011-037A = Spektr-R = NORAD 37755
1 37755U 11037A   21285.49919926  .00000000  00000-0  00000-0 0 14341
2 37755 074.6910 308.0008 6935503 341.0935 246.1590 00.11176915    09

# Worst residual: 24.62 km
# MJD 59500.000000 (2021 Oct 13  0:00)
2011-037A = Spektr-R = NORAD 37755
1 37755U 11037A   21286.49919926  .00000000  00000-0  00000-0 0 14342
2 37755 074.7484 307.9900 6936288 340.9502 286.7532 00.11129066    05

# Worst residual: 52.86 km
# MJD 59501.000000 (2021 Oct 14  0:00)
2011-037A = Spektr-R = NORAD 37755
1 37755U 11037A   21287.49919926  .00000000  00000-0  00000-0 0 14343
2 37755 074.8422 307.9896 6965825 340.6392 327.4541 00.10970453    01

# Worst residual: 167.76 km
# MJD 59502.000000 (2021 Oct 15  0:00)
2011-037A = Spektr-R = NORAD 37755
1 37755U 11037A   21288.49919926  .00000000  00000-0  00000-0 0 14344
2 37755 074.9224 307.8589 7019097 341.3893 006.8726 00.10849718    08

# Worst residual: 46.55 km
# MJD 59503.000000 (2021 Oct 16  0:00)
2011-037A = Spektr-R = NORAD 37755
1 37755U 11037A   21289.49919926  .00000000  00000-0  00000-0 0 14345
2 37755 074.9045 308.0720 6948839 341.6009 046.9484 00.11112512    07

# Worst residual: 10.08 km
# MJD 59504.000000 (2021 Oct 17  0:00)
2011-037A = Spektr-R = NORAD 37755
1 37755U 11037A   21290.49919926  .00000000  00000-0  00000-0 0 14347
2 37755 074.8553 308.0986 6934505 341.4274 087.7156 00.11209275    03

# Worst residual: 5.35 km
# MJD 59505.000000 (2021 Oct 18  0:00)
2011-037A = Spektr-R = NORAD 37755
1 37755U 11037A   21291.49919926  .00000000  00000-0  00000-0 0 14348
2 37755 074.9130 308.0276 6933776 341.4624 128.1619 00.11221941    03

# Worst residual: 3.79 km
# MJD 59506.000000 (2021 Oct 19  0:00)
2011-037A = Spektr-R = NORAD 37755
1 37755U 11037A   21292.49919926  .00000000  00000-0  00000-0 0 14349
2 37755 074.9653 307.9820 6932374 341.5611 168.3881 00.11218210    08

# Worst residual: 8.24 km
# MJD 59507.000000 (2021 Oct 20  0:00)
2011-037A = Spektr-R = NORAD 37755
1 37755U 11037A   21293.49919926  .00000000  00000-0  00000-0 0 14340
2 37755 074.9112 307.9832 6930316 341.6604 208.5144 00.11214539    07

# Worst residual: 11.01 km
# MJD 59508.000000 (2021 Oct 21  0:00)
2011-037A = Spektr-R = NORAD 37755
1 37755U 11037A   21294.49919926  .00000000  00000-0  00000-0 0 14341
2 37755 074.7486 307.9887 6927281 341.7456 248.6367 00.11212588    06

# Worst residual: 9.48 km
# MJD 59509.000000 (2021 Oct 22  0:00)
2011-037A = Spektr-R = NORAD 37755
1 37755U 11037A   21295.49919926  .00000000  00000-0  00000-0 0 14342
2 37755 074.5776 307.9596 6922750 341.8016 288.8045 00.11208546    00

# Worst residual: 14.10 km
# MJD 59510.000000 (2021 Oct 23  0:00)
2011-037A = Spektr-R = NORAD 37755
1 37755U 11037A   21296.49919926  .00000000  00000-0  00000-0 0 14343
2 37755 074.5388 307.9426 6917902 341.7797 329.0151 00.11195762    00

# Worst residual: 65.57 km
# MJD 59511.000000 (2021 Oct 24  0:00)
2011-037A = Spektr-R = NORAD 37755
1 37755U 11037A   21297.49919926  .00000000  00000-0  00000-0 0 14344
2 37755 074.4776 308.0576 6919964 341.6591 009.1853 00.11173838    04

# Worst residual: 13.17 km
# MJD 59512.000000 (2021 Oct 25  0:00)
2011-037A = Spektr-R = NORAD 37755
1 37755U 11037A   21298.49919926  .00000000  00000-0  00000-0 0 14345
2 37755 074.4457 307.9167 6931535 341.7238 049.1277 00.11148220    02

# Worst residual: 39.63 km
# MJD 59513.000000 (2021 Oct 26  0:00)
2011-037A = Spektr-R = NORAD 37755
1 37755U 11037A   21299.49919926  .00000000  00000-0  00000-0 0 14346
2 37755 074.5516 307.7535 6931273 342.0563 088.6488 00.11093713    08

# Worst residual: 126.84 km
# MJD 59514.000000 (2021 Oct 27  0:00)
2011-037A = Spektr-R = NORAD 37755
1 37755U 11037A   21300.49919926  .00000000  00000-0  00000-0 0 14349
2 37755 075.0467 307.3587 6921730 342.8536 126.5377 00.10976109    04

# Worst residual: 130.41 km
# MJD 59515.000000 (2021 Oct 28  0:00)
2011-037A = Spektr-R = NORAD 37755
1 37755U 11037A   21301.49919926  .00000000  00000-0  00000-0 0 14340
2 37755 075.2270 307.2616 6975159 344.2645 160.4482 00.10876522    03

# Worst residual: 84.60 km
# MJD 59516.000000 (2021 Oct 29  0:00)
2011-037A = Spektr-R = NORAD 37755
1 37755U 11037A   21302.49919926  .00000000  00000-0  00000-0 0 14341
2 37755 073.6247 307.7487 7093152 345.1007 195.8824 00.10963393    02

# Worst residual: 28.60 km
# MJD 59517.000000 (2021 Oct 30  0:00)
2011-037A = Spektr-R = NORAD 37755
1 37755U 11037A   21303.49919926  .00000000  00000-0  00000-0 0 14342
2 37755 072.5218 307.8856 7146432 345.3645 234.7894 00.11020752    03

# Worst residual: 13.67 km
# MJD 59518.000000 (2021 Oct 31  0:00)
2011-037A = Spektr-R = NORAD 37755
1 37755U 11037A   21304.49919926  .00000000  00000-0  00000-0 0 14343
2 37755 072.1194 307.8508 7168064 345.5554 274.2948 00.11044588    04

# Worst residual: 43.71 km
# MJD 59519.000000 (2021 Nov  1  0:00)
2011-037A = Spektr-R = NORAD 37755
1 37755U 11037A   21305.49919926  .00000000  00000-0  00000-0 0 14344
2 37755 071.9305 307.7961 7170426 345.9292 313.4809 00.11130927    00

# Worst residual: 154.86 km
# MJD 59520.000000 (2021 Nov  2  0:00)
2011-037A = Spektr-R = NORAD 37755
1 37755U 11037A   21306.49919926  .00000000  00000-0  00000-0 0 14345
2 37755 071.7282 307.6520 7103090 345.9519 353.0469 00.11389024    03

# Worst residual: 107.37 km
# MJD 59521.000000 (2021 Nov  3  0:00)
2011-037A = Spektr-R = NORAD 37755
1 37755U 11037A   21307.49919926  .00000000  00000-0  00000-0 0 14346
2 37755 071.8235 307.6275 7143356 345.0756 033.7289 00.11347882    00

# Worst residual: 39.32 km
# MJD 59522.000000 (2021 Nov  4  0:00)
2011-037A = Spektr-R = NORAD 37755
1 37755U 11037A   21308.49919926  .00000000  00000-0  00000-0 0 14347
2 37755 071.9394 307.5100 7191348 345.4778 072.8575 00.11155178    02
